start=new Date('2021-11-22T00:00:00.000Z').valueOf();
sats=[{"NORAD_CAT_ID":"45549","GP_ID":"190206611","FILE":"3220718","ELEMENT_SET_NO":"999","DECAY_DATE":null,"SEMIMAJOR_AXIS":"6844.239","MEAN_ELEMENT_THEORY":"SGP4","ECCENTRICITY":"0.00015440","CLASSIFICATION_TYPE":"U","PERIAPSIS":"465.047","EPHEMERIS_TYPE":"0","ARG_OF_PERICENTER":"50.8805","OBJECT_ID":"2020-025U","SITE":"AFETR","RA_OF_ASC_NODE":"308.7579","MEAN_MOTION_DDOT":"0.0000000000000","OBJECT_NAME":"STARLINK-1379","REV_AT_EPOCH":"8803","REF_FRAME":"TEME","RCS_SIZE":"LARGE","TLE_LINE1":"1 45549U 20025U   21325.73740752  .00618908  00000-0  17706-1 0  9998","BSTAR":"0.01770600000000","COUNTRY_CODE":"US","LAUNCH_DATE":"2020-04-22","MEAN_MOTION_DOT":"0.00618908","APOAPSIS":"467.161","CENTER_NAME":"EARTH","OBJECT_TYPE":"PAYLOAD","INCLINATION":"53.0532","PERIOD":"93.918","TLE_LINE2":"2 45549  53.0532 308.7579 0001544  50.8805 309.2333 15.33257120 88037","MEAN_MOTION":"15.33257120","TIME_SYSTEM":"UTC","MEAN_ANOMALY":"309.2333","EPOCH":"2021-11-21T17:41:52.009728"},{"ELEMENT_SET_NO":"999","FILE":"3220686","GP_ID":"190201985","NORAD_CAT_ID":"45550","MEAN_ELEMENT_THEORY":"SGP4","ECCENTRICITY":"0.00018880","DECAY_DATE":null,"SEMIMAJOR_AXIS":"6925.343","PERIAPSIS":"545.901","EPHEMERIS_TYPE":"0","CLASSIFICATION_TYPE":"U","SITE":"AFETR","OBJECT_ID":"2020-025V","ARG_OF_PERICENTER":"61.7382","TLE_LINE1":"1 45550U 20025V   21325.33056864  .00001576  00000-0  12470-3 0  9992","REF_FRAME":"TEME","RCS_SIZE":"LARGE","OBJECT_NAME":"STARLINK-1390","MEAN_MOTION_DDOT":"0.0000000000000","REV_AT_EPOCH":"8854","RA_OF_ASC_NODE":"311.7545","LAUNCH_DATE":"2020-04-22","BSTAR":"0.00012470000000","COUNTRY_CODE":"US","PERIOD":"95.592","INCLINATION":"53.0555","OBJECT_TYPE":"PAYLOAD","MEAN_MOTION_DOT":"0.00001576","CENTER_NAME":"EARTH","APOAPSIS":"548.516","EPOCH":"2021-11-21T07:56:01.130496","TIME_SYSTEM":"UTC","MEAN_ANOMALY":"298.3797","TLE_LINE2":"2 45550  53.0555 311.7545 0001888  61.7382 298.3797 15.06401691 88545","MEAN_MOTION":"15.06401691"},{"GP_ID":"190206536","NORAD_CAT_ID":"45551","ELEMENT_SET_NO":"999","FILE":"3220726","MEAN_ELEMENT_THEORY":"SGP4","ECCENTRICITY":"0.00017920","DECAY_DATE":null,"SEMIMAJOR_AXIS":"6925.356","CLASSIFICATION_TYPE":"U","PERIAPSIS":"545.980","EPHEMERIS_TYPE":"0","OBJECT_ID":"2020-025W","ARG_OF_PERICENTER":"62.8436","SITE":"AFETR","MEAN_MOTION_DDOT":"0.0000000000000","OBJECT_NAME":"STARLINK-1294","REV_AT_EPOCH":"8826","RA_OF_ASC_NODE":"290.5523","TLE_LINE1":"1 45551U 20025W   21325.59874610  .00001584  00000-0  12520-3 0  9993","REF_FRAME":"TEME","RCS_SIZE":"LARGE","BSTAR":"0.00012520000000","COUNTRY_CODE":"US","LAUNCH_DATE":"2020-04-22","OBJECT_TYPE":"PAYLOAD","INCLINATION":"53.0538","MEAN_MOTION_DOT":"0.00001584","APOAPSIS":"548.462","CENTER_NAME":"EARTH","PERIOD":"95.592","TIME_SYSTEM":"UTC","MEAN_ANOMALY":"297.2736","TLE_LINE2":"2 45551  53.0538 290.5523 0001792  62.8436 297.2736 15.06397690 88266","MEAN_MOTION":"15.06397690","EPOCH":"2021-11-21T14:22:11.663040"},{"CLASSIFICATION_TYPE":"U","EPHEMERIS_TYPE":"0","PERIAPSIS":"440.833","ARG_OF_PERICENTER":"104.9691","OBJECT_ID":"2020-025X","SITE":"AFETR","NORAD_CAT_ID":"45552","GP_ID":"190207347","FILE":"3220732","ELEMENT_SET_NO":"999","SEMIMAJOR_AXIS":"6820.312","DECAY_DATE":null,"ECCENTRICITY":"0.00019700","MEAN_ELEMENT_THEORY":"SGP4","APOAPSIS":"443.520","CENTER_NAME":"EARTH","MEAN_MOTION_DOT":"0.00111116","INCLINATION":"53.0561","OBJECT_TYPE":"PAYLOAD","PERIOD":"93.426","MEAN_MOTION":"15.41332847","TLE_LINE2":"2 45552  53.0561 280.6150 0001970 104.9691 255.1531 15.41332847 88402","MEAN_ANOMALY":"255.1531","TIME_SYSTEM":"UTC","EPOCH":"2021-11-21T13:46:59.520864","RA_OF_ASC_NODE":"280.6150","REV_AT_EPOCH":"8840","OBJECT_NAME":"STARLINK-1322","MEAN_MOTION_DDOT":"0.0000000000000","RCS_SIZE":"LARGE","REF_FRAME":"TEME","TLE_LINE1":"1 45552U 20025X   21325.57430001  .00111116  00000-0  25963-2 0  9991","COUNTRY_CODE":"US","BSTAR":"0.00259630000000","LAUNCH_DATE":"2020-04-22"},{"REV_AT_EPOCH":"8827","OBJECT_NAME":"STARLINK-1323","MEAN_MOTION_DDOT":"0.0000000000000","RA_OF_ASC_NODE":"290.5014","TLE_LINE1":"1 45553U 20025Y   21325.60980226  .00001952  00000-0  14992-3 0  9992","RCS_SIZE":"LARGE","REF_FRAME":"TEME","COUNTRY_CODE":"US","BSTAR":"0.00014992000000","LAUNCH_DATE":"2020-04-22","INCLINATION":"53.0555","OBJECT_TYPE":"PAYLOAD","CENTER_NAME":"EARTH","APOAPSIS":"548.353","MEAN_MOTION_DOT":"0.00001952","PERIOD":"95.592","MEAN_ANOMALY":"289.3157","TIME_SYSTEM":"UTC","TLE_LINE2":"2 45553  53.0555 290.5014 0001649  70.8011 289.3157 15.06400830 88272","MEAN_MOTION":"15.06400830","EPOCH":"2021-11-21T14:38:06.915264","GP_ID":"190206824","NORAD_CAT_ID":"45553","ELEMENT_SET_NO":"999","FILE":"3220726","ECCENTRICITY":"0.00016490","MEAN_ELEMENT_THEORY":"SGP4","SEMIMAJOR_AXIS":"6925.346","DECAY_DATE":null,"CLASSIFICATION_TYPE":"U","EPHEMERIS_TYPE":"0","PERIAPSIS":"546.069","OBJECT_ID":"2020-025Y","ARG_OF_PERICENTER":"70.8011","SITE":"AFETR"},{"LAUNCH_DATE":"2020-04-22","BSTAR":"0.00001751800000","COUNTRY_CODE":"US","TLE_LINE1":"1 45554U 20025Z   21325.60243309 -.00000021  00000-0  17518-4 0  9992","REF_FRAME":"TEME","RCS_SIZE":"LARGE","MEAN_MOTION_DDOT":"0.0000000000000","OBJECT_NAME":"STARLINK-1325","REV_AT_EPOCH":"8826","RA_OF_ASC_NODE":"290.5347","EPOCH":"2021-11-21T14:27:30.218976","TIME_SYSTEM":"UTC","MEAN_ANOMALY":"291.2851","TLE_LINE2":"2 45554  53.0537 290.5347 0001826  68.8333 291.2851 15.06393791 88262","MEAN_MOTION":"15.06393791","PERIOD":"95.593","OBJECT_TYPE":"PAYLOAD","INCLINATION":"53.0537","MEAN_MOTION_DOT":"-0.00000021","APOAPSIS":"548.497","CENTER_NAME":"EARTH","MEAN_ELEMENT_THEORY":"SGP4","ECCENTRICITY":"0.00018260","DECAY_DATE":null,"SEMIMAJOR_AXIS":"6925.368","ELEMENT_SET_NO":"999","FILE":"3220714","GP_ID":"190206555","NORAD_CAT_ID":"45554","SITE":"AFETR","OBJECT_ID":"2020-025Z","ARG_OF_PERICENTER":"68.8333","PERIAPSIS":"545.968","EPHEMERIS_TYPE":"0","CLASSIFICATION_TYPE":"U"},{"COUNTRY_CODE":"US","BSTAR":"0.00015728000000","LAUNCH_DATE":"2020-04-22","REV_AT_EPOCH":"8827","MEAN_MOTION_DDOT":"0.0000000000000","OBJECT_NAME":"STARLINK-1327","RA_OF_ASC_NODE":"290.4017","TLE_LINE1":"1 45555U 20025AA  21325.63191944  .00002062  00000-0  15728-3 0  9999","RCS_SIZE":"LARGE","REF_FRAME":"TEME","MEAN_ANOMALY":"300.9433","TIME_SYSTEM":"UTC","MEAN_MOTION":"15.06402325","TLE_LINE2":"2 45555  53.0537 290.4017 0001972  59.1750 300.9433 15.06402325 88273","EPOCH":"2021-11-21T15:09:57.839616","INCLINATION":"53.0537","OBJECT_TYPE":"PAYLOAD","CENTER_NAME":"EARTH","APOAPSIS":"548.572","MEAN_MOTION_DOT":"0.00002062","PERIOD":"95.592","ECCENTRICITY":"0.00019720","MEAN_ELEMENT_THEORY":"SGP4","SEMIMAJOR_AXIS":"6925.341","DECAY_DATE":null,"GP_ID":"190206551","NORAD_CAT_ID":"45555","ELEMENT_SET_NO":"999","FILE":"3220714","OBJECT_ID":"2020-025AA","ARG_OF_PERICENTER":"59.1750","SITE":"AFETR","CLASSIFICATION_TYPE":"U","EPHEMERIS_TYPE":"0","PERIAPSIS":"545.841"},{"EPHEMERIS_TYPE":"0","PERIAPSIS":"545.995","CLASSIFICATION_TYPE":"U","SITE":"AFETR","ARG_OF_PERICENTER":"63.1078","OBJECT_ID":"2020-025AB","FILE":"3220686","ELEMENT_SET_NO":"999","NORAD_CAT_ID":"45556","GP_ID":"190202486","SEMIMAJOR_AXIS":"6925.344","DECAY_DATE":null,"ECCENTRICITY":"0.00017540","MEAN_ELEMENT_THEORY":"SGP4","PERIOD":"95.592","APOAPSIS":"548.424","CENTER_NAME":"EARTH","MEAN_MOTION_DOT":"0.00002275","OBJECT_TYPE":"PAYLOAD","INCLINATION":"53.0549","EPOCH":"2021-11-21T09:46:11.383680","MEAN_MOTION":"15.06401340","TLE_LINE2":"2 45556  53.0549 291.4121 0001754  63.1078 297.0091 15.06401340 88845","MEAN_ANOMALY":"297.0091","TIME_SYSTEM":"UTC","RCS_SIZE":"LARGE","REF_FRAME":"TEME","TLE_LINE1":"1 45556U 20025AB  21325.40707620  .00002275  00000-0  17160-3 0  9997","RA_OF_ASC_NODE":"291.4121","REV_AT_EPOCH":"8884","OBJECT_NAME":"STARLINK-1334","MEAN_MOTION_DDOT":"0.0000000000000","LAUNCH_DATE":"2020-04-22","COUNTRY_CODE":"US","BSTAR":"0.00017160000000"},{"ARG_OF_PERICENTER":"64.1699","OBJECT_ID":"2020-025AC","SITE":"AFETR","CLASSIFICATION_TYPE":"U","PERIAPSIS":"546.027","EPHEMERIS_TYPE":"0","DECAY_DATE":null,"SEMIMAJOR_AXIS":"6925.360","MEAN_ELEMENT_THEORY":"SGP4","ECCENTRICITY":"0.00017300","NORAD_CAT_ID":"45557","GP_ID":"190203233","FILE":"3220686","ELEMENT_SET_NO":"999","MEAN_MOTION":"15.06396163","TLE_LINE2":"2 45557  53.0534 291.3759 0001730  64.1699 295.9469 15.06396163 88842","TIME_SYSTEM":"UTC","MEAN_ANOMALY":"295.9469","EPOCH":"2021-11-21T09:56:48.613920","MEAN_MOTION_DOT":"0.00001071","APOAPSIS":"548.423","CENTER_NAME":"EARTH","OBJECT_TYPE":"PAYLOAD","INCLINATION":"53.0534","PERIOD":"95.592","BSTAR":"0.00009078900000","COUNTRY_CODE":"US","LAUNCH_DATE":"2020-04-22","RA_OF_ASC_NODE":"291.3759","MEAN_MOTION_DDOT":"0.0000000000000","OBJECT_NAME":"STARLINK-1336","REV_AT_EPOCH":"8884","REF_FRAME":"TEME","RCS_SIZE":"LARGE","TLE_LINE1":"1 45557U 20025AC  21325.41445155  .00001071  00000-0  90789-4 0  9993"},{"MEAN_ELEMENT_THEORY":"SGP4","ECCENTRICITY":"0.00017040","DECAY_DATE":null,"SEMIMAJOR_AXIS":"6925.378","ELEMENT_SET_NO":"999","FILE":"3220686","GP_ID":"190201986","NORAD_CAT_ID":"45558","SITE":"AFETR","OBJECT_ID":"2020-025AD","ARG_OF_PERICENTER":"63.5822","PERIAPSIS":"546.063","EPHEMERIS_TYPE":"0","CLASSIFICATION_TYPE":"U","LAUNCH_DATE":"2020-04-22","BSTAR":"0.00012150000000","COUNTRY_CODE":"US","TLE_LINE1":"1 45558U 20025AD  21325.18226051  .00001528  00000-0  12150-3 0  9992","REF_FRAME":"TEME","RCS_SIZE":"LARGE","MEAN_MOTION_DDOT":"0.0000000000000","OBJECT_NAME":"STARLINK-1342","REV_AT_EPOCH":"8880","RA_OF_ASC_NODE":"292.4187","EPOCH":"2021-11-21T04:22:27.308064","TIME_SYSTEM":"UTC","MEAN_ANOMALY":"296.5341","TLE_LINE2":"2 45558  53.0550 292.4187 0001704  63.5822 296.5341 15.06390291 88808","MEAN_MOTION":"15.06390291","PERIOD":"95.593","OBJECT_TYPE":"PAYLOAD","INCLINATION":"53.0550","MEAN_MOTION_DOT":"0.00001528","CENTER_NAME":"EARTH","APOAPSIS":"548.423"}];
